{
  "type": "FeatureCollection",
  "features": [
    {
      "type": "Feature",
      "properties": {
        "norad_id": 43823,
        "name": "GEO-KOMPSAT-2A",
        "group": "weather",
        "lat": -0.0013760417387538705,
        "lon": -80.43711592965069,
        "alt_km": 35787.75164824977,
        "timestamp": "2025-12-24T03:53:29.285305+00:00",
        "meta_object_name": "GEO-KOMPSAT-2A",
        "meta_object_id": "2018-100A",
        "meta_epoch": "2025-12-23T18:52:41.268864",
        "meta_mean_motion": 1.00270306,
        "meta_eccentricity": 2.83e-05,
        "meta_inclination": 0.0456,
        "meta_ra_of_asc_node": 176.9766,
        "meta_arg_of_pericenter": 280.5392,
        "meta_mean_anomaly": 46.4855,
        "meta_ephemeris_type": 0,
        "meta_classification_type": "U",
        "meta_norad_cat_id": 43823,
        "meta_element_set_no": 999,
        "meta_rev_at_epoch": 2587,
        "meta_bstar": 0,
        "meta_mean_motion_dot": -3.23e-06,
        "meta_mean_motion_ddot": 0,
        "tle_line1": "1 43823U 18100A   25357.78658876 -.00000323  00000+0  00000+0 0  9994",
        "tle_line2": "2 43823   0.0456 176.9766 0000283 280.5392  46.4855  1.00270306 25874"
      },
      "geometry": {
        "type": "Point",
        "coordinates": [
          -80.43711592965069,
          -0.0013760417387538705
        ]
      }
    },
    {
      "type": "Feature",
      "properties": {
        "norad_id": 44387,
        "name": "METEOR-M2 2",
        "group": "weather",
        "lat": -49.24436841937967,
        "lon": 147.55711092528998,
        "alt_km": 817.9756113682724,
        "timestamp": "2025-12-24T03:53:29.285317+00:00",
        "meta_object_name": "METEOR-M2 2",
        "meta_object_id": "2019-038A",
        "meta_epoch": "2025-12-23T21:45:25.705728",
        "meta_mean_motion": 14.24295644,
        "meta_eccentricity": 0.0001753,
        "meta_inclination": 98.8982,
        "meta_ra_of_asc_node": 337.7719,
        "meta_arg_of_pericenter": 127.6276,
        "meta_mean_anomaly": 232.5062,
        "meta_ephemeris_type": 0,
        "meta_classification_type": "U",
        "meta_norad_cat_id": 44387,
        "meta_element_set_no": 999,
        "meta_rev_at_epoch": 33634,
        "meta_bstar": 9.7964e-06,
        "meta_mean_motion_dot": -2.3e-07,
        "meta_mean_motion_ddot": 0,
        "tle_line1": "1 44387U 19038A   25357.90654752 -.00000023  00000+0  97964-5 0  9992",
        "tle_line2": "2 44387  98.8982 337.7719 0001753 127.6276 232.5062 14.24295644336346"
      },
      "geometry": {
        "type": "Point",
        "coordinates": [
          147.55711092528998,
          -49.24436841937967
        ]
      }
    },
    {
      "type": "Feature",
      "properties": {
        "norad_id": 47719,
        "name": "ARKTIKA-M 1",
        "group": "weather",
        "lat": 56.75651607724718,
        "lon": 132.94214165049894,
        "alt_km": 33404.66070433944,
        "timestamp": "2025-12-24T03:53:29.285330+00:00",
        "meta_object_name": "ARKTIKA-M 1",
        "meta_object_id": "2021-016A",
        "meta_epoch": "2025-12-23T01:01:51.743136",
        "meta_mean_motion": 2.00630806,
        "meta_eccentricity": 0.72093828,
        "meta_inclination": 63.1759,
        "meta_ra_of_asc_node": 82.5898,
        "meta_arg_of_pericenter": 269.1646,
        "meta_mean_anomaly": 15.5425,
        "meta_ephemeris_type": 0,
        "meta_classification_type": "U",
        "meta_norad_cat_id": 47719,
        "meta_element_set_no": 999,
        "meta_rev_at_epoch": 3525,
        "meta_bstar": 0,
        "meta_mean_motion_dot": -6.7e-07,
        "meta_mean_motion_ddot": 0,
        "tle_line1": "1 47719U 21016A   25357.04295999 -.00000067  00000+0  00000+0 0  9999",
        "tle_line2": "2 47719  63.1759  82.5898 7209382 269.1646  15.5425  2.00630806 35258"
      },
      "geometry": {
        "type": "Point",
        "coordinates": [
          132.94214165049894,
          56.75651607724718
        ]
      }
    },
    {
      "type": "Feature",
      "properties": {
        "norad_id": 49008,
        "name": "FENGYUN 3E",
        "group": "weather",
        "lat": 7.649927143957603,
        "lon": -2.6375376691482026,
        "alt_km": 828.2411073107805,
        "timestamp": "2025-12-24T03:53:29.285364+00:00",
        "meta_object_name": "FENGYUN 3E",
        "meta_object_id": "2021-062A",
        "meta_epoch": "2025-12-23T21:05:24.598752",
        "meta_mean_motion": 14.19879881,
        "meta_eccentricity": 8.62e-05,
        "meta_inclination": 98.7472,
        "meta_ra_of_asc_node": 358.2674,
        "meta_arg_of_pericenter": 194.1324,
        "meta_mean_anomaly": 165.9828,
        "meta_ephemeris_type": 0,
        "meta_classification_type": "U",
        "meta_norad_cat_id": 49008,
        "meta_element_set_no": 999,
        "meta_rev_at_epoch": 23170,
        "meta_bstar": -0.00017116,
        "meta_mean_motion_dot": -4.07e-06,
        "meta_mean_motion_ddot": 0,
        "tle_line1": "1 49008U 21062A   25357.87875693 -.00000407  00000+0 -17116-3 0  9998",
        "tle_line2": "2 49008  98.7472 358.2674 0000862 194.1324 165.9828 14.19879881231703"
      },
      "geometry": {
        "type": "Point",
        "coordinates": [
          -2.6375376691482026,
          7.649927143957603
        ]
      }
    },
    {
      "type": "Feature",
      "properties": {
        "norad_id": 51850,
        "name": "GOES 18",
        "group": "weather",
        "lat": -0.002098969634441623,
        "lon": 14.30839710808379,
        "alt_km": 35785.30584773172,
        "timestamp": "2025-12-24T03:53:29.285378+00:00",
        "meta_object_name": "GOES 18",
        "meta_object_id": "2022-021A",
        "meta_epoch": "2025-12-23T07:37:18.727104",
        "meta_mean_motion": 1.00270845,
        "meta_eccentricity": 3.47e-05,
        "meta_inclination": 0.0109,
        "meta_ra_of_asc_node": 113.4809,
        "meta_arg_of_pericenter": 211.8579,
        "meta_mean_anomaly": 104.0988,
        "meta_ephemeris_type": 0,
        "meta_classification_type": "U",
        "meta_norad_cat_id": 51850,
        "meta_element_set_no": 999,
        "meta_rev_at_epoch": 482,
        "meta_bstar": 0,
        "meta_mean_motion_dot": 1.18e-06,
        "meta_mean_motion_ddot": 0,
        "tle_line1": "1 51850U 22021A   25357.31757786  .00000118  00000+0  00000+0 0  9990",
        "tle_line2": "2 51850   0.0109 113.4809 0000347 211.8579 104.0988  1.00270845  4825"
      },
      "geometry": {
        "type": "Point",
        "coordinates": [
          14.30839710808379,
          -0.002098969634441623
        ]
      }
    },
    {
      "type": "Feature",
      "properties": {
        "norad_id": 54234,
        "name": "NOAA 21 (JPSS-2)",
        "group": "weather",
        "lat": -0.43091675011290453,
        "lon": -65.60510181163215,
        "alt_km": 828.7215859788803,
        "timestamp": "2025-12-24T03:53:29.285389+00:00",
        "meta_object_name": "NOAA 21 (JPSS-2)",
        "meta_object_id": "2022-150A",
        "meta_epoch": "2025-12-23T19:26:06.861696",
        "meta_mean_motion": 14.19527064,
        "meta_eccentricity": 0.0001721,
        "meta_inclination": 98.7477,
        "meta_ra_of_asc_node": 293.9806,
        "meta_arg_of_pericenter": 15.4331,
        "meta_mean_anomaly": 344.6897,
        "meta_ephemeris_type": 0,
        "meta_classification_type": "U",
        "meta_norad_cat_id": 54234,
        "meta_element_set_no": 999,
        "meta_rev_at_epoch": 16166,
        "meta_bstar": 6.1527e-05,
        "meta_mean_motion_dot": 8.6e-07,
        "meta_mean_motion_ddot": 0,
        "tle_line1": "1 54234U 22150A   25357.80980164  .00000086  00000+0  61527-4 0  9994",
        "tle_line2": "2 54234  98.7477 293.9806 0001721  15.4331 344.6897 14.19527064161667"
      },
      "geometry": {
        "type": "Point",
        "coordinates": [
          -65.60510181163215,
          -0.43091675011290453
        ]
      }
    },
    {
      "type": "Feature",
      "properties": {
        "norad_id": 54743,
        "name": "METEOSAT-12 (MTG-I1)",
        "group": "weather",
        "lat": 0.5829891401775957,
        "lon": 150.97351328241007,
        "alt_km": 35789.06651129175,
        "timestamp": "2025-12-24T03:53:29.285401+00:00",
        "meta_object_name": "METEOSAT-12 (MTG-I1)",
        "meta_object_id": "2022-170C",
        "meta_epoch": "2025-12-23T18:15:59.783040",
        "meta_mean_motion": 1.00270834,
        "meta_eccentricity": 0.0001564,
        "meta_inclination": 0.6982,
        "meta_ra_of_asc_node": 25.4205,
        "meta_arg_of_pericenter": 240.5599,
        "meta_mean_anomaly": 100.2466,
        "meta_ephemeris_type": 0,
        "meta_classification_type": "U",
        "meta_norad_cat_id": 54743,
        "meta_element_set_no": 999,
        "meta_rev_at_epoch": 1121,
        "meta_bstar": 0,
        "meta_mean_motion_dot": 1.3e-07,
        "meta_mean_motion_ddot": 0,
        "tle_line1": "1 54743U 22170C   25357.76110860  .00000013  00000+0  00000+0 0  9998",
        "tle_line2": "2 54743   0.6982  25.4205 0001564 240.5599 100.2466  1.00270834 11217"
      },
      "geometry": {
        "type": "Point",
        "coordinates": [
          150.97351328241007,
          0.5829891401775957
        ]
      }
    }
  ]
}